STARLINK-30218          
1 57604U 23119C   24244.40008249  .00002547  00000+0  20354-3 0  9995
2 57604  43.0021 219.0961 0001004 254.7817 105.2915 15.02542972 59555
STARLINK-30138          
1 57605U 23119D   24244.39675110  .00001181  00000+0  10244-3 0  9991
2 57605  43.0016 219.0708 0001396 262.0535  98.0149 15.02549113 59554
STARLINK-30255          
1 57606U 23119E   24244.63493930 -.00000867  00000+0 -49152-4 0  9990
2 57606  43.0026 217.4188 0000364 258.0789 102.0013 15.02520383 59576
STARLINK-30252          
1 57607U 23119F   24244.60647321  .00001612  00000+0  13433-3 0  9992
2 57607  43.0055 205.3286 0001182 275.7546  84.3162 15.02541272 59735
STARLINK-30258          
1 57608U 23119G   24244.38787686  .00002795  00000+0  22187-3 0  9996
2 57608  43.0033 219.0021 0000585 257.1516 102.9261 15.02541135 59553
STARLINK-30174          
1 57609U 23119H   24244.64602329  .00000969  00000+0  86813-4 0  9994
2 57609  43.0031 217.4982 0000790 281.4302  78.6452 15.02538557 59589
STARLINK-30248          
1 57610U 23119J   24244.64935364 -.00001731  00000+0 -11311-3 0  9994
2 57610  42.9999 217.5184 0000622  16.4897 343.5966 15.02530944 59537
STARLINK-30052          
1 57611U 23119K   24244.37677460  .00002027  00000+0  16502-3 0  9999
2 57611  43.0021 218.9214 0001085 269.0457  91.0261 15.02545570 59531
STARLINK-30245          
1 57612U 23119L   24244.43993117 -.00000129  00000+0  55194-5 0  9991
2 57612  43.0047 218.5329 0001522 285.5009  74.5666 15.02541580 59560
STARLINK-30041          
1 57613U 23119M   24244.63603717  .00000833  00000+0  76731-4 0  9998
2 57613  43.0065 217.4215 0000706 275.6821  84.3941 15.02530848 59580
STARLINK-30244          
1 57614U 23119N   24244.43326061  .00001954  00000+0  15964-3 0  9996
2 57614  43.0022 218.4849 0001231 267.2308  92.8394 15.02548491 59566
STARLINK-30246          
1 57615U 23119P   24244.42993284  .00002566  00000+0  20493-3 0  9996
2 57615  43.0051 218.4428 0001261 260.5889  99.4811 15.02541944 59568
STARLINK-30075          
1 57616U 23119Q   24244.42671822  .00000547  00000+0  55560-4 0  9999
2 57616  43.0016 219.2968 0001088 260.7604  99.3115 15.02546295 59551
STARLINK-30148          
1 57617U 23119R   24244.42339515  .00001989  00000+0  16224-3 0  9994
2 57617  43.0001 219.2727 0001033 267.8415  92.2309 15.02541957 59554
STARLINK-30249          
1 57618U 23119S   24244.61951203 -.00002173  00000+0 -14591-3 0  9993
2 57618  42.9994 218.1616 0000394 132.1474 227.9402 15.02529258 59525
STARLINK-30141          
1 57620U 23119U   24244.40895865  .00001965  00000+0  16043-3 0  9994
2 57620  43.0026 219.1637 0001274 278.6506  81.4192 15.02548976 59550
STARLINK-30150          
1 57621U 23119V   24244.41007049  .00001922  00000+0  15730-3 0  9990
2 57621  43.0022 219.1730 0001298 276.9674  83.1021 15.02547970 59557
STARLINK-30056          
1 57622U 23119W   24244.40676366  .00006361  00000+0  48596-3 0  9992
2 57622  43.0028 219.1136 0000945 152.8225 207.2667 15.02504646 59554
STARLINK-30100          
1 57623U 23119X   24244.40339492 -.00004407  00000+0 -31101-3 0  9994
2 57623  43.0034 219.1198 0001201 263.8364  96.2342 15.02582099 59557
STARLINK-30309          
1 57632U 23122A   24244.44307690  .00000310  00000+0  38049-4 0  9993
2 57632  43.0031 232.0924 0001183 262.2768  97.7940 15.02539071 58657
STARLINK-30306          
1 57633U 23122B   24244.43973837  .00000552  00000+0  55927-4 0  9997
2 57633  43.0012 232.0667 0001315 257.6819 102.3876 15.02539977 58659
STARLINK-30323          
1 57634U 23122C   24244.43436617  .00004409  00000+0  34111-3 0  9994
2 57634  43.0021 218.4395 0001249 270.4988  89.5711 15.02552331 58813
STARLINK-30329          
1 57635U 23122D   24244.43640925  .00004047  00000+0  31440-3 0  9994
2 57635  43.0010 232.0431 0001232 276.3765  83.6937 15.02550034 58650
STARLINK-30330          
1 57636U 23122E   24244.43307881  .00002005  00000+0  16343-3 0  9993
2 57636  43.0018 232.0188 0001083 275.0594  85.0125 15.02548365 58657
STARLINK-30311          
1 57637U 23122F   24244.42641644  .00001858  00000+0  15256-3 0  9998
2 57637  43.0018 231.9691 0001259 268.6679  91.4020 15.02547343 58652
STARLINK-30328          
1 57638U 23122G   24244.64046524  .00001749  00000+0  14454-3 0  9997
2 57638  43.0021 217.3489 0000118 252.8441 107.2389 15.02532126 58832
STARLINK-30326          
1 57639U 23122H   24244.45627441  .00001670  00000+0  13864-3 0  9997
2 57639  43.0015 231.3250 0001234 259.9248 100.1455 15.02538646 58661
STARLINK-30324          
1 57640U 23122J   24244.68568072  .00000415  00000+0  45745-4 0  9998
2 57640  43.0004 230.4722 0001012 275.1984  84.8742 15.02541312 58678
STARLINK-30312          
1 57641U 23122K   24244.68234296  .00002584  00000+0  20628-3 0  9998
2 57641  43.0050 230.4486 0002282 274.5191  85.5391 15.02537663 58672
STARLINK-30263          
1 57642U 23122L   24244.67570711  .00001492  00000+0  12560-3 0  9996
2 57642  43.0089 230.3961 0000622 279.7327  80.3445 15.02510388 58674
STARLINK-30280          
1 57643U 23122M   24244.66569372  .00001532  00000+0  12842-3 0  9995
2 57643  43.0006 230.3228 0000862 306.9154  53.1609 15.02535076 58678
STARLINK-30247          
1 57644U 23122N   24244.46958629 -.00003145  00000+0 -21767-3 0  9991
2 57644  43.0004 231.4382 0000921 255.0470 105.0270 15.02561292 58660
STARLINK-30277          
1 57645U 23122P   24243.99957049  .00002585  00000+0  10862-3 0  9993
2 57645  43.0019 204.1438 0001559 257.3011 102.7666 15.25911473 58949
STARLINK-30265          
1 57646U 23122Q   24244.67901822  .00002619  00000+0  20885-3 0  9992
2 57646  43.0042 230.4211 0001125 277.2247  82.8467 15.02535619 58674
STARLINK-30286          
1 57647U 23122R   24244.46293584  .00001001  00000+0  89176-4 0  9992
2 57647  43.0022 231.3819 0001115 281.9501  78.1216 15.02540440 58668
STARLINK-30243          
1 57648U 23122S   24244.44961192 -.00000141  00000+0  46281-5 0  9994
2 57648  43.0000 231.2842 0000998 258.9359 101.1371 15.02543543 58669
STARLINK-30299          
1 57650U 23122U   24244.45960533  .00001076  00000+0  94669-4 0  9995
2 57650  43.0015 231.3566 0001086 268.6461  91.4257 15.02540965 58662
STARLINK-30294          
1 57651U 23122V   24244.65266884 -.00001830  00000+0 -12044-3 0  9992
2 57651  42.9984 217.5000 0000169 251.6288 108.4536 15.02534439 58786
STARLINK-30276          
1 57652U 23122W   24244.45294323  .00002457  00000+0  19688-3 0  9995
2 57652  43.0013 231.3056 0000913 259.1954 100.8786 15.02541429 58664
STARLINK-30289          
1 57653U 23122X   24244.65598792  .00001715  00000+0  14193-3 0  9997
2 57653  43.0019 217.4810 0000663 278.5487  81.5280 15.02542810 58830
STARLINK-30267          
1 57663U 23124A   24244.79620122 -.00005876  00000+0 -16391-3 0  9994
2 57663  53.1583 266.1741 0001145  91.7691 268.3443 15.34213058 58448
STARLINK-30302          
1 57664U 23124B   24244.80605209 -.00022659  00000+0 -66561-3 0  9998
2 57664  53.1589 267.7114 0001380  98.2089 261.9070 15.34205027 58554
STARLINK-30298          
1 57665U 23124C   24244.79675207  .00001393  00000+0  52690-4 0  9991
2 57665  53.1586 267.6126 0001607  87.7412 272.3775 15.34191255 58565
STARLINK-30301          
1 57666U 23124D   24244.40151417  .00001431  00000+0  11929-3 0  9994
2 57666  53.1592 274.1460 0001295  94.8043 265.3095 15.04933137 58421
STARLINK-30275          
1 57667U 23124E   24244.79173362 -.00001207  00000+0 -24790-4 0  9994
2 57667  53.1613 267.3687 0001097  94.7461 265.3667 15.34177713 58208
STARLINK-30278          
1 57668U 23124F   24244.80587820 -.00008646  00000+0 -24646-3 0  9998
2 57668  53.1579 268.9108 0002113  80.6217 279.5024 15.34218892 58543
STARLINK-30271          
1 57669U 23124G   24244.75907800 -.00002376  00000+0 -59571-4 0  9997
2 57669  53.1574 267.0630 0001783  74.0554 286.0645 15.34212479 58561
STARLINK-30322          
1 57670U 23124H   24244.78594267 -.00002461  00000+0 -76196-4 0  9998
2 57670  53.1361 267.4127 0000985 125.6178 234.4913 15.28024962 58195
STARLINK-30296          
1 57671U 23124J   24244.54441011  .00004830  00000+0  15473-3 0  9991
2 57671  53.1571 265.9828 0001263  66.2135 293.9000 15.34245778 58568
STARLINK-30274          
1 57672U 23124K   24244.55901250  .00005528  00000+0  17552-3 0  9994
2 57672  53.1589 268.3054 0001347  94.2453 265.8703 15.34235290 58389
STARLINK-30316          
1 57673U 23124L   24244.80105424  .00000408  00000+0  23340-4 0  9997
2 57673  53.1588 267.5820 0001262  84.5465 275.5681 15.34207059 58264
STARLINK-30314          
1 57674U 23124M   24244.55030325  .00044350  00000+0  13751-2 0  9994
2 57674  53.1609 268.9692 0005152  38.5100 321.6269 15.32997282 58164
STARLINK-30317          
1 57675U 23124N   24244.78742274 -.00006824  00000+0 -19227-3 0  9994
2 57675  53.1577 267.5890 0001190  92.8015 267.3124 15.34197695 58562
STARLINK-30313          
1 57676U 23124P   24244.35894318  .00058223  00000+0  17263-2 0  9990
2 57676  53.1565 269.1943 0001105  93.4781 266.6348 15.34302887 58505
STARLINK-30303          
1 57677U 23124Q   24244.79207858  .00001985  00000+0  70280-4 0  9999
2 57677  53.1572 267.5901 0001135  79.5410 280.5720 15.34202698 58426
STARLINK-30320          
1 57678U 23124R   24244.76844521 -.00000196  00000+0  53300-5 0  9990
2 57678  53.1575 267.4787 0001263  97.0358 263.0788 15.34210118 58560
STARLINK-30321          
1 57679U 23124S   24244.80138642 -.00003342  00000+0 -88318-4 0  9999
2 57679  53.1574 267.6525 0001539  72.9483 287.1688 15.34223424 58109
STARLINK-30283          
1 57680U 23124T   24244.78700481 -.00002715  00000+0 -69720-4 0  9993
2 57680  53.1592 266.8213 0001877 104.0238 256.0973 15.34184632 58576
STARLINK-30273          
1 57681U 23124U   24244.76392970 -.00019360  00000+0 -56672-3 0  9997
2 57681  53.1581 268.5207 0002556  74.5469 285.5815 15.34207576 58541
